NORAD_CAT_ID,OBJECT_NAME,OBJECT_TYPE,EPOCH,MEAN_MOTION,ECCENTRICITY,INCLINATION,RA_OF_ASC_NODE,ARG_OF_PERICENTER,MEAN_ANOMALY,BSTAR,MEAN_MOTION_DOT,MEAN_MOTION_DDOT,TLE_LINE0,TLE_LINE1,TLE_LINE2,SEMIMAJOR_AXIS,PERIOD,APOGEE,PERIGEE,DECAYED
53923.0,STARLINK-5004,PAYLOAD,2023-06-20 04:43:27,15.08856912,0.0001218,53.2162,93.9097,91.9143,268.1988,0.00041334,6.3e-05,0.0,0 STARLINK-5004,1 53923U 22119AP  23171.19684865  .00006300  00000-0  41334-3 0  9995,2 53923  53.2162  93.9097 0001218  91.9143 268.1988 15.08856912 41427,6917.829,95.436,540.536,538.851,0.0
53923.0,STARLINK-5004,PAYLOAD,2023-06-20 19:01:55,15.08847655,0.0001154,53.2158,91.2336,94.3356,265.7768,6.0816e-05,6.8e-06,0.0,0 STARLINK-5004,1 53923U 22119AP  23171.79300885  .00000680  00000-0  60816-4 0  9990,2 53923  53.2158  91.2336 0001154  94.3356 265.7768 15.08847655 41930,6917.857,95.437,540.52,538.924,0.0
53923.0,STARLINK-5004,PAYLOAD,2023-06-21 01:23:28,15.08849594,0.0001228,53.2162,90.0446,94.0545,266.0587,7.5038e-05,9.07e-06,0.0,0 STARLINK-5004,1 53923U 22119AP  23172.05796690  .00000907  00000-0  75038-4 0  9997,2 53923  53.2162  90.0446 0001228  94.0545 266.0587 15.08849594 41558,6917.851,95.437,540.566,538.867,0.0
53923.0,STARLINK-5004,PAYLOAD,2023-06-21 10:55:47,15.08844594,0.0001166,53.2158,88.259,94.1876,265.925,-2.0575e-05,-6.15e-06,0.0,0 STARLINK-5004,1 53923U 22119AP  23172.45540814 -.00000615  00000-0 -20575-4 0  9990,2 53923  53.2158  88.2590 0001166  94.1876 265.9250 15.08844594 42035,6917.866,95.437,540.538,538.925,0.0
53923.0,STARLINK-5004,PAYLOAD,2023-06-21 18:52:43,15.08840153,0.000179,53.2163,86.7723,92.7889,267.3308,5.0949e-06,-2.07e-06,0.0,0 STARLINK-5004,1 53923U 22119AP  23172.78661211 -.00000207  00000-0  50949-5 0  9996,2 53923  53.2163  86.7723 0001790  92.7889 267.3308 15.08840153 41668,6917.88,95.438,540.983,538.507,0.0
53923.0,STARLINK-5004,PAYLOAD,2023-06-23 01:05:03,15.08845754,0.0001301,53.2174,81.1272,104.4344,255.6792,0.00029891,4.473e-05,0.0,0 STARLINK-5004,1 53923U 22119AP  23174.04517398  .00004473  00000-0  29891-3 0  9991,2 53923  53.2174  81.1272 0001301 104.4344 255.6792 15.08845754 41853,6917.863,95.437,540.628,538.828,0.0
53923.0,STARLINK-5004,PAYLOAD,2023-06-23 10:37:21,15.08842999,0.0001236,53.2169,79.3425,102.6349,257.4781,0.00028372,4.231e-05,0.0,0 STARLINK-5004,1 53923U 22119AP  23174.44261567  .00004231  00000-0  28372-3 0  9994,2 53923  53.2169  79.3425 0001236 102.6349 257.4781 15.08842999 41911,6917.871,95.437,540.591,538.881,0.0
53923.0,STARLINK-5004,PAYLOAD,2023-06-24 16:49:41,15.08838124,0.0001018,53.2157,73.688,105.9599,254.1505,4.6096e-05,4.46e-06,0.0,0 STARLINK-5004,1 53923U 22119AP  23175.70117600  .00000446  00000-0  46096-4 0  9990,2 53923  53.2157  73.6880 0001018 105.9599 254.1505 15.08838124 42106,6917.886,95.438,540.455,539.047,0.0
53923.0,STARLINK-5004,PAYLOAD,2023-06-25 03:57:23,15.08850277,0.0001075,53.2152,71.6072,108.4514,251.6595,0.00052634,8.101e-05,0.0,0 STARLINK-5004,1 53923U 22119AP  23176.16485382  .00008101  00000-0  52634-3 0  9996,2 53923  53.2152  71.6072 0001075 108.4514 251.6595 15.08850277 42171,6917.849,95.437,540.458,538.97,0.0
53923.0,STARLINK-5004,PAYLOAD,2023-06-25 16:40:28,15.08839922,0.0001469,53.2155,69.2294,83.6464,276.4695,0.00018893,2.72e-05,0.0,0 STARLINK-5004,1 53923U 22119AP  23176.69477989  .00002720  00000-0  18893-3 0  9998,2 53923  53.2155  69.2294 0001469  83.6464 276.4695 15.08839922 42257,6917.881,95.438,540.762,538.729,0.0
53923.0,STARLINK-5004,PAYLOAD,2023-06-26 02:12:47,15.08850617,0.0001276,53.2158,67.4449,87.5532,272.5606,0.00058955,9.11e-05,0.0,0 STARLINK-5004,1 53923U 22119AP  23177.09221769  .00009110  00000-0  58955-3 0  9999,2 53923  53.2158  67.4449 0001276  87.5532 272.5606 15.08850617 42317,6917.848,95.437,540.596,538.83,0.0
53923.0,STARLINK-5004,PAYLOAD,2023-06-26 16:31:16,15.08842212,0.0001527,53.2167,64.7693,85.0583,275.0583,0.00029888,4.472e-05,0.0,0 STARLINK-5004,1 53923U 22119AP  23177.68838125  .00004472  00000-0  29888-3 0  9993,2 53923  53.2167  64.7693 0001527  85.0583 275.0583 15.08842212 42400,6917.874,95.437,540.795,538.682,0.0
53923.0,STARLINK-5004,PAYLOAD,2023-06-27 19:32:49,15.08841412,0.0001225,53.2166,59.7142,91.2862,268.827,0.0001515,2.124e-05,0.0,0 STARLINK-5004,1 53923U 22119AP  23178.81446176  .00002124  00000-0  15150-3 0  9999,2 53923  53.2166  59.7142 0001225  91.2862 268.8270 15.08841412 42578,6917.876,95.437,540.589,538.894,0.0
53923.0,STARLINK-5004,PAYLOAD,2023-06-28 01:54:21,15.08847752,0.0001317,53.217,58.5231,97.5812,262.533,0.00021115,3.075e-05,0.0,0 STARLINK-5004,1 53923U 22119AP  23179.07941839  .00003075  00000-0  21115-3 0  9998,2 53923  53.2170  58.5231 0001317  97.5812 262.5330 15.08847752 42611,6917.857,95.437,540.633,538.811,0.0
53923.0,STARLINK-5004,PAYLOAD,2023-06-29 01:45:09,15.08841282,0.0001301,53.2178,54.0641,99.3349,260.779,9.0278e-05,1.149e-05,0.0,0 STARLINK-5004,1 53923U 22119AP  23180.07302134  .00001149  00000-0  90278-4 0  9996,2 53923  53.2178  54.0641 0001301  99.3349 260.7790 15.08841282 42761,6917.876,95.437,540.641,538.841,0.0
53923.0,STARLINK-5004,PAYLOAD,2023-06-29 19:14:23,15.08836594,0.0001402,53.2178,50.7905,106.1233,253.9914,3.9205e-05,3.36e-06,0.0,0 STARLINK-5004,1 53923U 22119AP  23180.80166620  .00000336  00000-0  39205-4 0  9995,2 53923  53.2178  50.7905 0001402 106.1233 253.9914 15.08836594 42872,6917.891,95.438,540.726,538.786,0.0
53923.0,STARLINK-5004,PAYLOAD,2023-06-30 23:51:20,15.08838668,0.0001264,53.2185,45.4417,99.6566,260.4569,6.8511e-05,8.03e-06,0.0,0 STARLINK-5004,1 53923U 22119AP  23181.99398752  .00000803  00000-0  68511-4 0  9990,2 53923  53.2185  45.4417 0001264  99.6566 260.4569 15.08838668 43054,6917.884,95.438,540.624,538.875,0.0
53923.0,STARLINK-5004,PAYLOAD,2023-07-02 07:39:03,15.08842475,0.0001069,53.2179,39.4941,86.3127,273.7987,9.4264e-05,1.213e-05,0.0,0 STARLINK-5004,1 53923U 22119AP  23183.31878625  .00001213  00000-0  94264-4 0  9990,2 53923  53.2179  39.4941 0001069  86.3127 273.7987 15.08842475 43255,6917.873,95.437,540.477,538.998,0.0
53923.0,STARLINK-5004,PAYLOAD,2023-07-03 07:29:51,15.08816245,0.0001004,53.2171,35.0334,102.4147,257.6957,0.00033787,5.09e-05,0.0,0 STARLINK-5004,1 53923U 22119AP  23184.31240066  .00005090  00000-0  33787-3 0  9992,2 53923  53.2171  35.0334 0001004 102.4147 257.6957 15.08816245 43407,6917.953,95.439,540.513,539.123,0.0
53923.0,STARLINK-5004,PAYLOAD,2023-07-03 13:51:23,15.08834405,9.28e-05,53.2167,33.8441,86.6662,273.4436,-3.8262e-05,-8.96e-06,0.0,0 STARLINK-5004,1 53923U 22119AP  23184.57735677 -.00000896  00000-0 -38262-4 0  9992,2 53923  53.2167  33.8441 0000928  86.6662 273.4436 15.08834405 43446,6917.897,95.438,540.404,539.121,0.0
53923.0,STARLINK-5004,PAYLOAD,2023-07-04 23:14:28,15.0885081,9.82e-05,53.2172,27.5988,88.0931,272.0173,0.0001418,1.97e-05,0.0,0 STARLINK-5004,1 53923U 22119AP  23185.96838180  .00001970  00000-0  14180-3 0  9993,2 53923  53.2172  27.5988 0000982  88.0931 272.0173 15.08850810 43657,6917.847,95.437,540.392,539.033,0.0
53923.0,STARLINK-5004,PAYLOAD,2023-07-05 08:46:47,15.08839979,0.0001269,53.2169,25.8168,82.4539,277.6598,0.00010837,1.437e-05,0.0,0 STARLINK-5004,1 53923U 22119AP  23186.36583009  .00001437  00000-0  10837-3 0  9998,2 53923  53.2169  25.8168 0001269  82.4539 277.6598 15.08839979 43717,6917.88,95.438,540.623,538.868,0.0
53923.0,STARLINK-5004,PAYLOAD,2023-07-06 19:45:16,15.08849488,9.68e-05,53.2173,19.2721,91.3365,268.7738,2.0289e-05,3.5e-07,0.0,0 STARLINK-5004,1 53923U 22119AP  23187.82310569  .00000035  00000-0  20289-4 0  9995,2 53923  53.2173  19.2721 0000968  91.3365 268.7738 15.08849488 43932,6917.851,95.437,540.386,539.047,0.0
53923.0,STARLINK-5004,PAYLOAD,2023-07-07 08:28:21,15.08841052,8.82e-05,53.2172,16.8938,96.5915,263.5177,-6.8535e-05,-1.378e-05,0.0,0 STARLINK-5004,1 53923U 22119AP  23188.35303140 -.00001378  00000-0 -68535-4 0  9990,2 53923  53.2172  16.8938 0000882  96.5915 263.5177 15.08841052 44016,6917.877,95.437,540.352,539.132,0.0
53923.0,STARLINK-5004,PAYLOAD,2023-07-08 19:26:51,15.08837555,9.9e-05,53.2178,10.3522,96.4333,263.6772,4.0881e-05,3.63e-06,0.0,0 STARLINK-5004,1 53923U 22119AP  23189.81031349  .00000363  00000-0  40881-4 0  9996,2 53923  53.2178  10.3522 0000990  96.4333 263.6772 15.08837555 44232,6917.888,95.438,540.438,539.068,0.0
53923.0,STARLINK-5004,PAYLOAD,2023-07-10 12:46:52,15.08837359,9.66e-05,53.2177,2.6204,87.9914,272.1189,0.00011738,1.581e-05,0.0,0 STARLINK-5004,1 53923U 22119AP  23191.53255446  .00001581  00000-0  11738-3 0  9995,2 53923  53.2177   2.6204 0000966  87.9914 272.1189 15.08837359 44492,6917.888,95.438,540.422,539.085,0.0
53923.0,STARLINK-5004,PAYLOAD,2023-07-11 17:23:49,15.08840306,0.0001114,53.2185,357.2683,80.6358,279.476,6.7943e-05,7.94e-06,0.0,0 STARLINK-5004,1 53923U 22119AP  23192.72487541  .00000794  00000-0  67943-4 0  9995,2 53923  53.2185 357.2683 0001114  80.6358 279.4760 15.08840306 44670,6917.879,95.438,540.515,538.974,0.0
53923.0,STARLINK-5004,PAYLOAD,2023-07-13 17:05:23,15.08839435,0.0001077,53.2192,348.3467,85.3653,274.7462,3.8619e-05,3.27e-06,0.0,0 STARLINK-5004,1 53923U 22119AP  23194.71207661  .00000327  00000-0  38619-4 0  9999,2 53923  53.2192 348.3467 0001077  85.3653 274.7462 15.08839435 44978,6917.882,95.438,540.492,539.002,0.0
53923.0,STARLINK-5004,PAYLOAD,2023-07-14 20:06:55,15.0885185,9.61e-05,53.2183,343.2921,82.0634,278.0467,0.00012843,1.757e-05,0.0,0 STARLINK-5004,1 53923U 22119AP  23195.83814685  .00001757  00000-0  12843-3 0  9991,2 53923  53.2183 343.2921 0000961  82.0634 278.0467 15.08851850 45148,6917.844,95.437,540.374,539.044,0.0
53923.0,STARLINK-5004,PAYLOAD,2023-07-15 10:25:25,15.08832612,0.0001389,53.2195,340.6179,96.5064,263.6086,1.4331e-05,-6e-07,0.0,0 STARLINK-5004,1 53923U 22119AP  23196.43432398 -.00000060  00000-0  14331-4 0  9997,2 53923  53.2195 340.6179 0001389  96.5064 263.6086 15.08832612 45231,6917.903,95.438,540.729,538.807,0.0
